[{"OBJECT_NAME":"STARLINK-34178","OBJECT_ID":"2025-110A","EPOCH":"2026-02-26T06:53:55.421664","MEAN_MOTION":15.30193949,"ECCENTRICITY":0.00013694,"INCLINATION":53.1592,"RA_OF_ASC_NODE":79.944,"ARG_OF_PERICENTER":105.1587,"MEAN_ANOMALY":254.9565,"EPHEMERIS_TYPE":0,"CLASSIFICATION_TYPE":"U","NORAD_CAT_ID":64096,"ELEMENT_SET_NO":999,"REV_AT_EPOCH":4413,"BSTAR":0.0010081779,"MEAN_MOTION_DOT":0.00029614,"MEAN_MOTION_DDOT":0},{"OBJECT_NAME":"STARLINK-34174","OBJECT_ID":"2025-110B","EPOCH":"2026-02-26T06:44:48.444000","MEAN_MOTION":15.30188688,"ECCENTRICITY":0.00012155,"INCLINATION":53.1583,"RA_OF_ASC_NODE":79.9113,"ARG_OF_PERICENTER":82.6814,"MEAN_ANOMALY":277.4325,"EPHEMERIS_TYPE":0,"CLASSIFICATION_TYPE":"U","NORAD_CAT_ID":64097,"ELEMENT_SET_NO":999,"REV_AT_EPOCH":4413,"BSTAR":0.00039313382,"MEAN_MOTION_DOT":0.00011298,"MEAN_MOTION_DDOT":0},{"OBJECT_NAME":"STARLINK-34146","OBJECT_ID":"2025-110C","EPOCH":"2026-02-26T06:35:41.039520","MEAN_MOTION":15.30236869,"ECCENTRICITY":0.00014932,"INCLINATION":53.1586,"RA_OF_ASC_NODE":79.8723,"ARG_OF_PERICENTER":138.8966,"MEAN_ANOMALY":221.2148,"EPHEMERIS_TYPE":0,"CLASSIFICATION_TYPE":"U","NORAD_CAT_ID":64098,"ELEMENT_SET_NO":999,"REV_AT_EPOCH":4413,"BSTAR":0.0012938548,"MEAN_MOTION_DOT":0.00038202,"MEAN_MOTION_DDOT":0},{"OBJECT_NAME":"STARLINK-34074","OBJECT_ID":"2025-110D","EPOCH":"2026-02-26T07:01:30.939744","MEAN_MOTION":15.30189279,"ECCENTRICITY":0.00014097,"INCLINATION":53.1586,"RA_OF_ASC_NODE":79.981,"ARG_OF_PERICENTER":84.4188,"MEAN_ANOMALY":275.6973,"EPHEMERIS_TYPE":0,"CLASSIFICATION_TYPE":"U","NORAD_CAT_ID":64099,"ELEMENT_SET_NO":999,"REV_AT_EPOCH":4413,"BSTAR":0.00089623584,"MEAN_MOTION_DOT":0.0002627,"MEAN_MOTION_DDOT":0},{"OBJECT_NAME":"STARLINK-34082","OBJECT_ID":"2025-110E","EPOCH":"2026-02-26T06:58:28.896672","MEAN_MOTION":15.30214245,"ECCENTRICITY":0.00012236,"INCLINATION":53.1582,"RA_OF_ASC_NODE":79.9693,"ARG_OF_PERICENTER":101.1782,"MEAN_ANOMALY":258.9357,"EPHEMERIS_TYPE":0,"CLASSIFICATION_TYPE":"U","NORAD_CAT_ID":64100,"ELEMENT_SET_NO":999,"REV_AT_EPOCH":4413,"BSTAR":0.00083486973,"MEAN_MOTION_DOT":0.0002446,"MEAN_MOTION_DDOT":0},{"OBJECT_NAME":"STARLINK-34072","OBJECT_ID":"2025-110F","EPOCH":"2026-02-26T06:49:21.929376","MEAN_MOTION":15.30196312,"ECCENTRICITY":0.00012538,"INCLINATION":53.1578,"RA_OF_ASC_NODE":79.9308,"ARG_OF_PERICENTER":85.0509,"MEAN_ANOMALY":275.0635,"EPHEMERIS_TYPE":0,"CLASSIFICATION_TYPE":"U","NORAD_CAT_ID":64101,"ELEMENT_SET_NO":999,"REV_AT_EPOCH":4413,"BSTAR":0.00037860035,"MEAN_MOTION_DOT":0.00010869,"MEAN_MOTION_DDOT":0},{"OBJECT_NAME":"STARLINK-34104","OBJECT_ID":"2025-110G","EPOCH":"2026-02-26T06:40:14.767680","MEAN_MOTION":15.30206233,"ECCENTRICITY":0.00012829,"INCLINATION":53.1594,"RA_OF_ASC_NODE":79.891,"ARG_OF_PERICENTER":99.8926,"MEAN_ANOMALY":260.222,"EPHEMERIS_TYPE":0,"CLASSIFICATION_TYPE":"U","NORAD_CAT_ID":64102,"ELEMENT_SET_NO":999,"REV_AT_EPOCH":4413,"BSTAR":0.00048150274,"MEAN_MOTION_DOT":0.00013931,"MEAN_MOTION_DDOT":0},{"OBJECT_NAME":"STARLINK-34179","OBJECT_ID":"2025-110H","EPOCH":"2026-02-26T07:06:04.609152","MEAN_MOTION":15.30221385,"ECCENTRICITY":8.665e-5,"INCLINATION":53.1597,"RA_OF_ASC_NODE":79.9983,"ARG_OF_PERICENTER":113.6019,"MEAN_ANOMALY":246.5073,"EPHEMERIS_TYPE":0,"CLASSIFICATION_TYPE":"U","NORAD_CAT_ID":64103,"ELEMENT_SET_NO":999,"REV_AT_EPOCH":4413,"BSTAR":0.0011157694,"MEAN_MOTION_DOT":0.00032855,"MEAN_MOTION_DDOT":0},{"OBJECT_NAME":"STARLINK-34176","OBJECT_ID":"2025-110J","EPOCH":"2026-02-26T06:56:57.846624","MEAN_MOTION":15.30213409,"ECCENTRICITY":0.00015855,"INCLINATION":53.159,"RA_OF_ASC_NODE":79.9599,"ARG_OF_PERICENTER":118.1807,"MEAN_ANOMALY":241.9354,"EPHEMERIS_TYPE":0,"CLASSIFICATION_TYPE":"U","NORAD_CAT_ID":64104,"ELEMENT_SET_NO":999,"REV_AT_EPOCH":4413,"BSTAR":0.00066669433,"MEAN_MOTION_DOT":0.00019446,"MEAN_MOTION_DDOT":0},{"OBJECT_NAME":"STARLINK-33949","OBJECT_ID":"2025-110K","EPOCH":"2026-02-26T06:52:26.254272","MEAN_MOTION":15.30202819,"ECCENTRICITY":9.183e-5,"INCLINATION":53.1586,"RA_OF_ASC_NODE":79.9416,"ARG_OF_PERICENTER":107.7217,"MEAN_ANOMALY":252.3884,"EPHEMERIS_TYPE":0,"CLASSIFICATION_TYPE":"U","NORAD_CAT_ID":64105,"ELEMENT_SET_NO":999,"REV_AT_EPOCH":4413,"BSTAR":0.0011655278,"MEAN_MOTION_DOT":0.00034323,"MEAN_MOTION_DDOT":0},{"OBJECT_NAME":"STARLINK-33970","OBJECT_ID":"2025-110L","EPOCH":"2026-02-26T06:38:43.447200","MEAN_MOTION":15.30215088,"ECCENTRICITY":0.00014352,"INCLINATION":53.1594,"RA_OF_ASC_NODE":79.882,"ARG_OF_PERICENTER":123.696,"MEAN_ANOMALY":236.4178,"EPHEMERIS_TYPE":0,"CLASSIFICATION_TYPE":"U","NORAD_CAT_ID":64106,"ELEMENT_SET_NO":999,"REV_AT_EPOCH":4413,"BSTAR":0.00081245201,"MEAN_MOTION_DOT":0.00023792,"MEAN_MOTION_DDOT":0},{"OBJECT_NAME":"STARLINK-33912","OBJECT_ID":"2025-110M","EPOCH":"2026-02-26T06:32:39.581376","MEAN_MOTION":15.30233024,"ECCENTRICITY":0.00015064,"INCLINATION":53.1587,"RA_OF_ASC_NODE":79.8541,"ARG_OF_PERICENTER":81.075,"MEAN_ANOMALY":279.0421,"EPHEMERIS_TYPE":0,"CLASSIFICATION_TYPE":"U","NORAD_CAT_ID":64107,"ELEMENT_SET_NO":999,"REV_AT_EPOCH":4413,"BSTAR":0.00064584861,"MEAN_MOTION_DOT":0.00018837,"MEAN_MOTION_DDOT":0},{"OBJECT_NAME":"STARLINK-34156","OBJECT_ID":"2025-110N","EPOCH":"2026-02-26T06:18:58.494528","MEAN_MOTION":15.30204068,"ECCENTRICITY":0.00011858,"INCLINATION":53.1593,"RA_OF_ASC_NODE":79.7929,"ARG_OF_PERICENTER":77.5198,"MEAN_ANOMALY":282.5935,"EPHEMERIS_TYPE":0,"CLASSIFICATION_TYPE":"U","NORAD_CAT_ID":64108,"ELEMENT_SET_NO":999,"REV_AT_EPOCH":4413,"BSTAR":0.00086509708,"MEAN_MOTION_DOT":0.00025353,"MEAN_MOTION_DDOT":0},{"OBJECT_NAME":"STARLINK-34124","OBJECT_ID":"2025-110P","EPOCH":"2026-02-26T06:28:05.423808","MEAN_MOTION":15.30199983,"ECCENTRICITY":0.000117,"INCLINATION":53.1593,"RA_OF_ASC_NODE":79.8306,"ARG_OF_PERICENTER":87.8361,"MEAN_ANOMALY":272.2774,"EPHEMERIS_TYPE":0,"CLASSIFICATION_TYPE":"U","NORAD_CAT_ID":64109,"ELEMENT_SET_NO":999,"REV_AT_EPOCH":4413,"BSTAR":0.00046315307,"MEAN_MOTION_DOT":0.00013383,"MEAN_MOTION_DDOT":0},{"OBJECT_NAME":"STARLINK-34145","OBJECT_ID":"2025-110Q","EPOCH":"2026-02-26T06:43:16.980960","MEAN_MOTION":15.30197519,"ECCENTRICITY":0.00011759,"INCLINATION":53.1589,"RA_OF_ASC_NODE":79.8995,"ARG_OF_PERICENTER":102.642,"MEAN_ANOMALY":257.4712,"EPHEMERIS_TYPE":0,"CLASSIFICATION_TYPE":"U","NORAD_CAT_ID":64110,"ELEMENT_SET_NO":999,"REV_AT_EPOCH":4413,"BSTAR":0.0008196503,"MEAN_MOTION_DOT":0.00023993,"MEAN_MOTION_DDOT":0},{"OBJECT_NAME":"STARLINK-34148","OBJECT_ID":"2025-110R","EPOCH":"2026-02-26T06:14:24.806976","MEAN_MOTION":15.30210303,"ECCENTRICITY":0.00017115,"INCLINATION":53.1605,"RA_OF_ASC_NODE":79.768,"ARG_OF_PERICENTER":107.1207,"MEAN_ANOMALY":252.9982,"EPHEMERIS_TYPE":0,"CLASSIFICATION_TYPE":"U","NORAD_CAT_ID":64111,"ELEMENT_SET_NO":999,"REV_AT_EPOCH":4413,"BSTAR":0.00072869734,"MEAN_MOTION_DOT":0.00021292,"MEAN_MOTION_DDOT":0}]
