STARLINK-34178          
1 64096U 25110A   26057.28744701  .00029614  00000+0  10082-2 0  9991
2 64096  53.1592  79.9440 0001369 105.1587 254.9565 15.30193949 44133
STARLINK-34174          
1 64097U 25110B   26057.28111625  .00011298  00000+0  39313-3 0  9993
2 64097  53.1583  79.9113 0001215  82.6814 277.4325 15.30188688 44131
STARLINK-34146          
1 64098U 25110C   26057.27478055  .00038202  00000+0  12939-2 0  9994
2 64098  53.1586  79.8723 0001493 138.8966 221.2148 15.30236869 44136
STARLINK-34074          
1 64099U 25110D   26057.29271921  .00026270  00000+0  89624-3 0  9998
2 64099  53.1586  79.9810 0001409  84.4188 275.6973 15.30189279 44135
STARLINK-34082          
1 64100U 25110E   26057.29061223  .00024460  00000+0  83487-3 0  9993
2 64100  53.1582  79.9693 0001223 101.1782 258.9357 15.30214245 44136
STARLINK-34072          
1 64101U 25110F   26057.28428159  .00010869  00000+0  37860-3 0  9990
2 64101  53.1578  79.9308 0001253  85.0509 275.0635 15.30196312 44138
STARLINK-34104          
1 64102U 25110G   26057.27794870  .00013931  00000+0  48150-3 0  9993
2 64102  53.1594  79.8910 0001282  99.8926 260.2220 15.30206233 44133
STARLINK-34179          
1 64103U 25110H   26057.29588668  .00032855  00000+0  11158-2 0  9995
2 64103  53.1597  79.9983 0000866 113.6019 246.5073 15.30221385 44131
STARLINK-34176          
1 64104U 25110J   26057.28955841  .00019446  00000+0  66669-3 0  9995
2 64104  53.1590  79.9599 0001585 118.1807 241.9354 15.30213409 44131
STARLINK-33949          
1 64105U 25110K   26057.28641498  .00034323  00000+0  11655-2 0  9991
2 64105  53.1586  79.9416 0000918 107.7217 252.3884 15.30202819 44130
STARLINK-33970          
1 64106U 25110L   26057.27689175  .00023792  00000+0  81245-3 0  9996
2 64106  53.1594  79.8820 0001435 123.6960 236.4178 15.30215088 44136
STARLINK-33912          
1 64107U 25110M   26057.27268034  .00018837  00000+0  64585-3 0  9996
2 64107  53.1587  79.8541 0001506  81.0750 279.0421 15.30233024 44136
STARLINK-34156          
1 64108U 25110N   26057.26317702  .00025353  00000+0  86510-3 0  9996
2 64108  53.1593  79.7929 0001185  77.5198 282.5935 15.30204068 44137
STARLINK-34124          
1 64109U 25110P   26057.26950722  .00013383  00000+0  46315-3 0  9991
2 64109  53.1593  79.8306 0001170  87.8361 272.2774 15.30199983 44134
STARLINK-34145          
1 64110U 25110Q   26057.28005765  .00023993  00000+0  81965-3 0  9991
2 64110  53.1589  79.8995 0001175 102.6420 257.4712 15.30197519 44132
STARLINK-34148          
1 64111U 25110R   26057.26000934  .00021292  00000+0  72870-3 0  9998
2 64111  53.1605  79.7680 0001711 107.1207 252.9982 15.30210303 44137
